XRISM,1 57800U 23137A   26085.61106913  .00005744  00000+0  32341-3 0  9999,2 57800  31.0013 174.1979 0007938 209.6422 150.3768 15.11688606140355,-22.115069267673395,111.36508729212086,535315.6387574462
ACS3,1 59588U 24077B   26086.27783745  .00028190  00000+0  22179-1 0  9991,2 59588  97.1972  23.4361 0071945  36.1211 324.4783 13.90414475 96645,12.677234188765855,-169.39519187424776,964098.756962947
SZ-21 MODULE,1 66515U 25246C   26086.32027920  .00037451  00000+0  30509-3 0  9998,2 66515  41.4743  94.7188 0001373 209.1832 150.8934 15.69886344 20842,41.630880645144536,167.9034627124405,362275.98715965357
